start=new Date('2022-08-22T00:00:00.000Z').valueOf();
sats=[{"ECCENTRICITY":"0.00014170","GP_ID":"210689925","SEMIMAJOR_AXIS":"6925.378","MEAN_MOTION_DOT":"-0.00001824","LAUNCH_DATE":"2020-10-06","REV_AT_EPOCH":"10437","MEAN_ELEMENT_THEORY":"SGP4","CENTER_NAME":"EARTH","ELEMENT_SET_NO":"999","INCLINATION":"53.0534","TLE_LINE1":"1 46554U 20070Y   22233.66649498 -.00001824  00000-0 -10364-3 0  9991","MEAN_ANOMALY":"285.4262","APOAPSIS":"548.225","RCS_SIZE":"LARGE","DECAY_DATE":null,"OBJECT_ID":"2020-070Y","FILE":"3542671","OBJECT_NAME":"STARLINK-1671","CLASSIFICATION_TYPE":"U","PERIOD":"95.593","EPOCH":"2022-08-21T15:59:45.166272","BSTAR":"-0.00010364000000","OBJECT_TYPE":"PAYLOAD","NORAD_CAT_ID":"46554","TLE_LINE2":"2 46554  53.0534 219.6839 0001417  74.6883 285.4262 15.06390265104374","MEAN_MOTION":"15.06390265","COUNTRY_CODE":"US","SITE":"AFETR","MEAN_MOTION_DDOT":"0.0000000000000","RA_OF_ASC_NODE":"219.6839","EPHEMERIS_TYPE":"0","REF_FRAME":"TEME","ARG_OF_PERICENTER":"74.6883","PERIAPSIS":"546.262","TIME_SYSTEM":"UTC"},{"TIME_SYSTEM":"UTC","PERIAPSIS":"546.073","ARG_OF_PERICENTER":"59.9066","REF_FRAME":"TEME","EPHEMERIS_TYPE":"0","RA_OF_ASC_NODE":"235.9098","SITE":"AFETR","MEAN_MOTION_DDOT":"0.0000000000000","COUNTRY_CODE":"US","MEAN_MOTION":"15.06389525","TLE_LINE2":"2 46556  53.0530 235.9098 0001694  59.9066 300.2091 15.06389525104122","NORAD_CAT_ID":"46556","BSTAR":"0.00000812080000","OBJECT_TYPE":"PAYLOAD","EPOCH":"2022-08-21T09:27:39.485664","PERIOD":"95.593","OBJECT_NAME":"STARLINK-1676","CLASSIFICATION_TYPE":"U","OBJECT_ID":"2020-070AA","FILE":"3542305","DECAY_DATE":null,"RCS_SIZE":"LARGE","TLE_LINE1":"1 46556U 20070AA  22233.39420701 -.00000161  00000-0  81208-5 0  9996","APOAPSIS":"548.419","MEAN_ANOMALY":"300.2091","INCLINATION":"53.0530","ELEMENT_SET_NO":"999","CENTER_NAME":"EARTH","REV_AT_EPOCH":"10412","MEAN_ELEMENT_THEORY":"SGP4","LAUNCH_DATE":"2020-10-06","MEAN_MOTION_DOT":"-0.00000161","GP_ID":"210655128","SEMIMAJOR_AXIS":"6925.381","ECCENTRICITY":"0.00016940"},{"TLE_LINE1":"1 46557U 20070AB  22233.37161824  .00000205  00000-0  32634-4 0  9999","MEAN_ANOMALY":"281.4701","APOAPSIS":"548.225","DECAY_DATE":null,"RCS_SIZE":"LARGE","CLASSIFICATION_TYPE":"U","OBJECT_NAME":"STARLINK-1679","FILE":"3542305","OBJECT_ID":"2020-070AB","PERIOD":"95.593","GP_ID":"210656375","SEMIMAJOR_AXIS":"6925.370","ECCENTRICITY":"0.00014300","LAUNCH_DATE":"2020-10-06","MEAN_MOTION_DOT":"0.00000205","ELEMENT_SET_NO":"999","REV_AT_EPOCH":"10433","MEAN_ELEMENT_THEORY":"SGP4","CENTER_NAME":"EARTH","INCLINATION":"53.0522","EPHEMERIS_TYPE":"0","REF_FRAME":"TEME","PERIAPSIS":"546.245","ARG_OF_PERICENTER":"78.6448","TIME_SYSTEM":"UTC","OBJECT_TYPE":"PAYLOAD","BSTAR":"0.00003263400000","EPOCH":"2022-08-21T08:55:07.815936","TLE_LINE2":"2 46557  53.0522 221.0275 0001430  78.6448 281.4701 15.06392976104332","NORAD_CAT_ID":"46557","COUNTRY_CODE":"US","MEAN_MOTION":"15.06392976","RA_OF_ASC_NODE":"221.0275","SITE":"AFETR","MEAN_MOTION_DDOT":"0.0000000000000"},{"ARG_OF_PERICENTER":"78.3068","PERIAPSIS":"546.064","TIME_SYSTEM":"UTC","EPHEMERIS_TYPE":"0","REF_FRAME":"TEME","MEAN_MOTION":"15.06399609","COUNTRY_CODE":"US","MEAN_MOTION_DDOT":"0.0000000000000","SITE":"AFETR","RA_OF_ASC_NODE":"220.6819","EPOCH":"2022-08-21T10:41:16.977696","BSTAR":"0.00001256800000","OBJECT_TYPE":"PAYLOAD","NORAD_CAT_ID":"46558","TLE_LINE2":"2 46558  53.0559 220.6819 0001662  78.3068 281.8108 15.06399609104317","OBJECT_ID":"2020-070AC","FILE":"3542305","OBJECT_NAME":"STARLINK-1680","CLASSIFICATION_TYPE":"U","PERIOD":"95.592","TLE_LINE1":"1 46558U 20070AC  22233.44533539 -.00000094  00000-0  12568-4 0  9995","MEAN_ANOMALY":"281.8108","APOAPSIS":"548.366","RCS_SIZE":"LARGE","DECAY_DATE":null,"REV_AT_EPOCH":"10431","MEAN_ELEMENT_THEORY":"SGP4","CENTER_NAME":"EARTH","ELEMENT_SET_NO":"999","INCLINATION":"53.0559","ECCENTRICITY":"0.00016620","GP_ID":"210654131","SEMIMAJOR_AXIS":"6925.350","MEAN_MOTION_DOT":"-0.00000094","LAUNCH_DATE":"2020-10-06"},{"TLE_LINE2":"2 46559  53.0547 204.8425 0001535  65.4132 294.7017 15.06395157104574","NORAD_CAT_ID":"46559","BSTAR":"-0.00003465800000","OBJECT_TYPE":"PAYLOAD","EPOCH":"2022-08-21T15:09:57.119904","RA_OF_ASC_NODE":"204.8425","MEAN_MOTION_DDOT":"0.0000000000000","SITE":"AFETR","COUNTRY_CODE":"US","MEAN_MOTION":"15.06395157","REF_FRAME":"TEME","EPHEMERIS_TYPE":"0","TIME_SYSTEM":"UTC","PERIAPSIS":"546.165","ARG_OF_PERICENTER":"65.4132","LAUNCH_DATE":"2020-10-06","MEAN_MOTION_DOT":"-0.00000798","SEMIMAJOR_AXIS":"6925.363","GP_ID":"210689426","ECCENTRICITY":"0.00015350","INCLINATION":"53.0547","ELEMENT_SET_NO":"999","REV_AT_EPOCH":"10457","MEAN_ELEMENT_THEORY":"SGP4","CENTER_NAME":"EARTH","DECAY_DATE":null,"RCS_SIZE":"LARGE","APOAPSIS":"548.291","TLE_LINE1":"1 46559U 20070AD  22233.63191111 -.00000798  00000-0 -34658-4 0  9999","MEAN_ANOMALY":"294.7017","PERIOD":"95.592","OBJECT_NAME":"STARLINK-1681","CLASSIFICATION_TYPE":"U","OBJECT_ID":"2020-070AD","FILE":"3542671"},{"ELEMENT_SET_NO":"999","REV_AT_EPOCH":"10431","MEAN_ELEMENT_THEORY":"SGP4","CENTER_NAME":"EARTH","INCLINATION":"53.0549","SEMIMAJOR_AXIS":"6925.341","GP_ID":"210655627","ECCENTRICITY":"0.00013900","LAUNCH_DATE":"2020-10-06","MEAN_MOTION_DOT":"-0.00000071","CLASSIFICATION_TYPE":"U","OBJECT_NAME":"STARLINK-1706","FILE":"3542305","OBJECT_ID":"2020-070AE","PERIOD":"95.592","APOAPSIS":"548.168","TLE_LINE1":"1 46560U 20070AE  22233.26103368 -.00000071  00000-0  14103-4 0  9993","MEAN_ANOMALY":"298.3013","DECAY_DATE":null,"RCS_SIZE":"LARGE","COUNTRY_CODE":"US","MEAN_MOTION":"15.06402609","RA_OF_ASC_NODE":"221.5095","MEAN_MOTION_DDOT":"0.0000000000000","SITE":"AFETR","OBJECT_TYPE":"PAYLOAD","BSTAR":"0.00001410300000","EPOCH":"2022-08-21T06:15:53.309952","TLE_LINE2":"2 46560  53.0549 221.5095 0001390  61.8117 298.3013 15.06402609104318","NORAD_CAT_ID":"46560","PERIAPSIS":"546.243","ARG_OF_PERICENTER":"61.8117","TIME_SYSTEM":"UTC","EPHEMERIS_TYPE":"0","REF_FRAME":"TEME"},{"ARG_OF_PERICENTER":"66.0665","PERIAPSIS":"546.117","TIME_SYSTEM":"UTC","EPHEMERIS_TYPE":"0","REF_FRAME":"TEME","MEAN_MOTION":"15.06385314","COUNTRY_CODE":"US","MEAN_MOTION_DDOT":"0.0000000000000","SITE":"AFETR","RA_OF_ASC_NODE":"219.6688","EPOCH":"2022-08-21T16:14:19.798656","BSTAR":"0.00004936900000","OBJECT_TYPE":"PAYLOAD","NORAD_CAT_ID":"46561","TLE_LINE2":"2 46561  53.0529 219.6688 0001648  66.0665 294.0496 15.06385314104371","OBJECT_ID":"2020-070AF","FILE":"3542671","OBJECT_NAME":"STARLINK-1709","CLASSIFICATION_TYPE":"U","PERIOD":"95.593","TLE_LINE1":"1 46561U 20070AF  22233.67661804  .00000454  00000-0  49369-4 0  9999","MEAN_ANOMALY":"294.0496","APOAPSIS":"548.400","RCS_SIZE":"LARGE","DECAY_DATE":null,"REV_AT_EPOCH":"10437","CENTER_NAME":"EARTH","MEAN_ELEMENT_THEORY":"SGP4","ELEMENT_SET_NO":"999","INCLINATION":"53.0529","ECCENTRICITY":"0.00016480","SEMIMAJOR_AXIS":"6925.394","GP_ID":"210688426","MEAN_MOTION_DOT":"0.00000454","LAUNCH_DATE":"2020-10-06"},{"MEAN_MOTION":"15.06397293","COUNTRY_CODE":"US","SITE":"AFETR","MEAN_MOTION_DDOT":"0.0000000000000","RA_OF_ASC_NODE":"214.6380","EPOCH":"2022-08-21T16:12:19.162656","OBJECT_TYPE":"PAYLOAD","BSTAR":"0.00003515200000","NORAD_CAT_ID":"46562","TLE_LINE2":"2 46562  53.0532 214.6380 0001517  74.3186 285.7971 15.06397293104447","ARG_OF_PERICENTER":"74.3186","PERIAPSIS":"546.171","TIME_SYSTEM":"UTC","EPHEMERIS_TYPE":"0","REF_FRAME":"TEME","MEAN_ELEMENT_THEORY":"SGP4","REV_AT_EPOCH":"10444","CENTER_NAME":"EARTH","ELEMENT_SET_NO":"999","INCLINATION":"53.0532","ECCENTRICITY":"0.00015170","GP_ID":"210689673","SEMIMAJOR_AXIS":"6925.357","MEAN_MOTION_DOT":"0.00000242","LAUNCH_DATE":"2020-10-06","FILE":"3542671","OBJECT_ID":"2020-070AG","CLASSIFICATION_TYPE":"U","OBJECT_NAME":"STARLINK-1714","PERIOD":"95.592","MEAN_ANOMALY":"285.7971","TLE_LINE1":"1 46562U 20070AG  22233.67522179  .00000242  00000-0  35152-4 0  9991","APOAPSIS":"548.272","RCS_SIZE":"LARGE","DECAY_DATE":null},{"MEAN_ANOMALY":"300.8690","TLE_LINE1":"1 46563U 20070AH  22233.25965852  .00000236  00000-0  34765-4 0  9997","APOAPSIS":"548.370","DECAY_DATE":null,"RCS_SIZE":"LARGE","OBJECT_NAME":"STARLINK-1730","CLASSIFICATION_TYPE":"U","OBJECT_ID":"2020-070AH","FILE":"3542305","PERIOD":"95.592","SEMIMAJOR_AXIS":"6925.360","GP_ID":"210654883","ECCENTRICITY":"0.00016530","LAUNCH_DATE":"2020-10-06","MEAN_MOTION_DOT":"0.00000236","ELEMENT_SET_NO":"999","CENTER_NAME":"EARTH","REV_AT_EPOCH":"10438","MEAN_ELEMENT_THEORY":"SGP4","INCLINATION":"53.0541","EPHEMERIS_TYPE":"0","REF_FRAME":"TEME","PERIAPSIS":"546.081","ARG_OF_PERICENTER":"59.2462","TIME_SYSTEM":"UTC","BSTAR":"0.00003476500000","OBJECT_TYPE":"PAYLOAD","EPOCH":"2022-08-21T06:13:54.496128","TLE_LINE2":"2 46563  53.0541 216.5343 0001653  59.2462 300.8690 15.06396145104383","NORAD_CAT_ID":"46563","COUNTRY_CODE":"US","MEAN_MOTION":"15.06396145","RA_OF_ASC_NODE":"216.5343","MEAN_MOTION_DDOT":"0.0000000000000","SITE":"AFETR"},{"LAUNCH_DATE":"2020-10-06","MEAN_MOTION_DOT":"0.00005638","SEMIMAJOR_AXIS":"6925.378","GP_ID":"210688676","ECCENTRICITY":"0.00013140","INCLINATION":"53.0524","ELEMENT_SET_NO":"999","CENTER_NAME":"EARTH","REV_AT_EPOCH":"10448","MEAN_ELEMENT_THEORY":"SGP4","DECAY_DATE":null,"RCS_SIZE":"LARGE","TLE_LINE1":"1 46564U 20070AJ  22233.90471358  .00005638  00000-0  39717-3 0  9995","APOAPSIS":"548.153","MEAN_ANOMALY":"284.3541","PERIOD":"95.593","OBJECT_NAME":"STARLINK-1733","CLASSIFICATION_TYPE":"U","OBJECT_ID":"2020-070AJ","FILE":"3542671","TLE_LINE2":"2 46564  53.0524 213.6150 0001314  75.7594 284.3541 15.06390366104483","NORAD_CAT_ID":"46564","BSTAR":"0.00039717000000","OBJECT_TYPE":"PAYLOAD","EPOCH":"2022-08-21T21:42:47.253312","RA_OF_ASC_NODE":"213.6150","MEAN_MOTION_DDOT":"0.0000000000000","SITE":"AFETR","COUNTRY_CODE":"US","MEAN_MOTION":"15.06390366","REF_FRAME":"TEME","EPHEMERIS_TYPE":"0","TIME_SYSTEM":"UTC","PERIAPSIS":"546.333","ARG_OF_PERICENTER":"75.7594"}];
